{
  "type": "FeatureCollection",
  "features": [
    {
      "type": "Feature",
      "id": "ANDOYA_Fareomr_de_Studentrakett_And_ya_Space",
      "geometry": null,
      "properties": {
        "dtg": "2026-08-03T12:27:00",
        "raw_dtg": "031227Z AUG 26",
        "msg_id": "ANDOYA_Fareomr_de_Studentrakett_And_ya_Space",
        "year": 2026,
        "cancellations": [],
        "hazard_type": "general",
        "category": "other",
        "title": "General Warning",
        "geometry_kind": "point",
        "radius_nm": null,
        "body": "Name: Danger Area ESC Andøya Space Description: The danger area is active on July 30th with launch window 1245-1600 local time. Backup day is July 31st with launch window 0845-1600 local time. The danger area is indicated as yellow prior to activation. The danger area is indicated red when it is less than 2-3 hours until it activates, and the launch window opens. The danger area is deactivated and goes back to yellow as soon as the activity is finished. Should there be a need for transit or use of the area, this can be coordinated with Andøya Space. Contact us on Phone 76 14 44 28, maritime channel 16 / 14 with call sign \"Andøya Space\". The operations center is staffed 1 hour before the launch window opens.  In advance of the launch, inquiries can be sent to mso@andoyaspace.no",
        "cancel_date": null,
        "valid_from": "2026-08-03T12:27:00+00:00",
        "valid_until": null,
        "corrections": [],
        "summary": null
      }
    },
    {
      "type": "Feature",
      "id": "ESTONIAN NAV WARN 111/26",
      "geometry": {
        "type": "Point",
        "coordinates": [
          21.76,
          58.02333333333333
        ]
      },
      "properties": {
        "dtg": "2026-07-17T12:56:00",
        "raw_dtg": "171256Z JUL 26",
        "msg_id": "ESTONIAN NAV WARN 111/26",
        "year": 2026,
        "cancellations": [],
        "hazard_type": "general",
        "category": "other",
        "title": "General Warning",
        "geometry_kind": "point",
        "radius_nm": null,
        "body": "[Central Baltic] ESTONIAN NAV WARN 111/26\nESTONIAN NAV WARN 111/2026\nNORTHERN BALTIC SEA\nFOR RESEARCH PURPOSES\nINSTALLED 4 YELLOW SPECIAL-PURPOSE\nLIGHT BUOYS FLY2S 3,5M\nSW OF SAAREMAA ISLAND\nBETWEEN POSITIONS:\n58-01.4N 021-45.6E\n57-59.9N 021-47.9E\nNAVIGATE WITH CAUTION",
        "cancel_date": null,
        "valid_from": "2026-07-17T12:56:00+00:00",
        "valid_until": null,
        "corrections": [],
        "summary": null
      }
    },
    {
      "type": "Feature",
      "id": "FINNISH NAV WARN 394/26",
      "geometry": {
        "type": "LineString",
        "coordinates": [
          [
            23.966666666666665,
            60.00833333333333
          ],
          [
            24.1,
            59.90833333333333
          ],
          [
            24.026666666666667,
            59.788333333333334
          ],
          [
            24.073333333333334,
            59.67666666666667
          ],
          [
            24.10333333333333,
            59.39333333333333
          ]
        ]
      },
      "properties": {
        "dtg": "2026-08-01T17:05:00",
        "raw_dtg": "011705Z AUG 26",
        "msg_id": "FINNISH NAV WARN 394/26",
        "year": 2026,
        "cancellations": [],
        "hazard_type": "general",
        "category": "other",
        "title": "General Warning",
        "geometry_kind": "linestring",
        "radius_nm": null,
        "body": "[Gulf of Finland] FINNISH NAV WARN 394/26\nGULF OF FINLAND.\nUNDERWATER SURVEY OPERATIONS IN PROGRESS\nBY RESEARCH VESSEL KAIKU CALL SIGN OJAL\nOPERATING IN VICINITY OF LINE JOINING:\n60-00.5N 023-58.0E\n59-54.5N 024-06.0E\n59-47.3N 024-01.6E\n59-40.6N 024-04.4E\n59-23.6N 024-06.2E\nVESSELS ARE REQUESTED TO KEEP A MINIMUM DISTANCE OF 0.5 NM FROM KAIKU.",
        "cancel_date": null,
        "valid_from": "2026-08-01T17:05:00+00:00",
        "valid_until": null,
        "corrections": [],
        "summary": null
      }
    },
    {
      "type": "Feature",
      "id": "GERMAN NAV WARN 416/26",
      "geometry": {
        "type": "Point",
        "coordinates": [
          9.883333333333333,
          54.833333333333336
        ]
      },
      "properties": {
        "dtg": "2026-07-22T09:00:00",
        "raw_dtg": "220900Z JUL 26",
        "msg_id": "GERMAN NAV WARN 416/26",
        "year": 2026,
        "cancellations": [],
        "hazard_type": "aid to navigation outage",
        "category": "navigation",
        "title": "Aid to Navigation Outage",
        "geometry_kind": "point",
        "radius_nm": null,
        "body": "[Western Baltic] GERMAN NAV WARN 416/26\nWESTERN BALTIC FLENSBURGER FOERDE\nKALKGRUND LIGHTHOUSE\nPOS 54-50N 009-53E UNLIT",
        "cancel_date": null,
        "valid_from": "2026-07-22T09:00:00+00:00",
        "valid_until": null,
        "corrections": [],
        "summary": null
      }
    },
    {
      "type": "Feature",
      "id": "GERMAN NAV WARN 434/26#grp1",
      "geometry": {
        "type": "LineString",
        "coordinates": [
          [
            13.93,
            54.81
          ],
          [
            13.896666666666667,
            54.91
          ],
          [
            13.788333333333334,
            54.89
          ]
        ]
      },
      "properties": {
        "parent_id": "GERMAN NAV WARN 434/26",
        "group_index": 1,
        "dtg": "2026-08-03T09:40:00",
        "raw_dtg": "030940Z AUG 26",
        "year": 2026,
        "hazard_type": "general",
        "category": "other",
        "title": "General Warning",
        "body": "[Southern Baltic] GERMAN NAV WARN 434/26\nSOUTHERN BALTIC. NORTHEAST OF RUEGEN.\nEXPLOSIVES FOUND ALONG THE JOININGLINES:\n1. 54-48,6N 013-55,8E,\n54-54,6N 013-53,8E AND\n54-53,4N 013-47,3E.\n2. 54-35,3N 013-49,2E,\n54-28,3N 013-50,9E AND\n54-21,7N 013-51,0E.\nANCHORING AND FISHING PROHIBITED WITHIN\nA RADIUS OF 100 METRES.\nCANCEL GERMAN NAV WARN 403/26",
        "cancel_date": null,
        "valid_from": "2026-08-03T09:40:00+00:00",
        "valid_until": null,
        "corrections": [],
        "summary": null
      }
    },
    {
      "type": "Feature",
      "id": "GERMAN NAV WARN 434/26#grp2",
      "geometry": {
        "type": "LineString",
        "coordinates": [
          [
            13.82,
            54.58833333333333
          ],
          [
            13.848333333333333,
            54.471666666666664
          ],
          [
            13.85,
            54.361666666666665
          ]
        ]
      },
      "properties": {
        "parent_id": "GERMAN NAV WARN 434/26",
        "group_index": 2,
        "dtg": "2026-08-03T09:40:00",
        "raw_dtg": "030940Z AUG 26",
        "year": 2026,
        "hazard_type": "general",
        "category": "other",
        "title": "General Warning",
        "body": "[Southern Baltic] GERMAN NAV WARN 434/26\nSOUTHERN BALTIC. NORTHEAST OF RUEGEN.\nEXPLOSIVES FOUND ALONG THE JOININGLINES:\n1. 54-48,6N 013-55,8E,\n54-54,6N 013-53,8E AND\n54-53,4N 013-47,3E.\n2. 54-35,3N 013-49,2E,\n54-28,3N 013-50,9E AND\n54-21,7N 013-51,0E.\nANCHORING AND FISHING PROHIBITED WITHIN\nA RADIUS OF 100 METRES.\nCANCEL GERMAN NAV WARN 403/26",
        "cancel_date": null,
        "valid_from": "2026-08-03T09:40:00+00:00",
        "valid_until": null,
        "corrections": [],
        "summary": null
      }
    },
    {
      "type": "Feature",
      "id": "GERMAN NAV WARN 436/26",
      "geometry": {
        "type": "LineString",
        "coordinates": [
          [
            12.455,
            54.575
          ],
          [
            12.23,
            54.35666666666667
          ],
          [
            12.313333333333333,
            54.29333333333334
          ],
          [
            12.468333333333334,
            54.571666666666665
          ]
        ]
      },
      "properties": {
        "dtg": "2026-08-05T15:25:00",
        "raw_dtg": "051525Z AUG 26",
        "msg_id": "GERMAN NAV WARN 436/26",
        "year": 2026,
        "cancellations": [],
        "hazard_type": "general",
        "category": "other",
        "title": "General Warning",
        "geometry_kind": "linestring",
        "radius_nm": null,
        "body": "[Western Baltic] GERMAN NAV WARN 436/26\nWESTERN BALTIC. WEST OF DARSS\nOPERATIONS BY MV 'ATALANTI' CS 'SVDM5'\nIN THE AREA BETWEEN\n54-34,5N 012-27,3E,\n54-21,4N 012-13,8E,\n54-17,6N 012-18,8E\n54-34,3N 012-28,1E.\nRESTRICTED MANOEVRABILITY DURING OPERATIONS.\nBERTH OF 1 NM REQUESTED.",
        "cancel_date": null,
        "valid_from": "2026-08-05T15:25:00+00:00",
        "valid_until": null,
        "corrections": [],
        "summary": null
      }
    },
    {
      "type": "Feature",
      "id": "HYDROARC 126/26",
      "geometry": {
        "type": "Polygon",
        "coordinates": [
          [
            [
              73.516,
              68.56183333333334
            ],
            [
              74.357,
              68.414
            ],
            [
              74.339,
              68.40033333333334
            ],
            [
              73.53933333333333,
              68.54983333333334
            ],
            [
              73.516,
              68.56183333333334
            ]
          ]
        ]
      },
      "properties": {
        "dtg": "2026-07-10T11:36:00",
        "raw_dtg": "101136Z JUL 26",
        "msg_id": "HYDROARC 126/26",
        "year": 2026,
        "cancellations": [],
        "hazard_type": "cable",
        "category": "cable",
        "title": "Underwater Cable",
        "geometry_kind": "polygon",
        "radius_nm": null,
        "body": "HYDROARC 126/26.\nKARA SEA.\nRUSSIA.\nSURVEY OPERATIONS 14 JUL 26 UNTIL FURTHER\nNOTICE BY M/V AKVAMARIN TOWING 1000 METER\nLONG CABLE IN AREA BOUND BY\n68-33.71N 073-30.96E, 68-24.84N 074-21.42E,\n68-24.02N 074-20.34E, 68-32.99N 073-32.36E.\nTWO MILE BERTH REQUESTED.",
        "cancel_date": null,
        "valid_from": "2026-07-10T11:36:00+00:00",
        "valid_until": null,
        "corrections": [],
        "summary": null
      }
    },
    {
      "type": "Feature",
      "id": "HYDROARC 149/26",
      "geometry": {
        "type": "Point",
        "coordinates": [
          80.4465,
          73.13733333333333
        ]
      },
      "properties": {
        "dtg": "2026-07-26T09:05:00",
        "raw_dtg": "260905Z JUL 26",
        "msg_id": "HYDROARC 149/26",
        "year": 2026,
        "cancellations": [],
        "hazard_type": "general",
        "category": "other",
        "title": "General Warning",
        "geometry_kind": "point",
        "radius_nm": null,
        "body": "HYDROARC 149/26.\nKARA SEA.\nRUSSIA.\nTIDE GAUGE ESTABLISHED AT DEPTH 15 METERS\nIN 73-08.24N 080-26.79E.\nWIDE BERTH REQUESTED.",
        "cancel_date": null,
        "valid_from": "2026-07-26T09:05:00+00:00",
        "valid_until": null,
        "corrections": [],
        "summary": null
      }
    },
    {
      "type": "Feature",
      "id": "HYDROARC 152/26",
      "geometry": {
        "type": "Polygon",
        "coordinates": [
          [
            [
              71.777,
              66.9
            ],
            [
              72.39333333333333,
              67.268
            ],
            [
              72.5625,
              67.37666666666667
            ],
            [
              72.79416666666667,
              67.513
            ],
            [
              74.0565,
              67.47583333333333
            ],
            [
              73.5065,
              66.86816666666667
            ],
            [
              72.14816666666667,
              66.34766666666667
            ],
            [
              71.777,
              66.9
            ]
          ]
        ]
      },
      "properties": {
        "dtg": "2026-07-30T11:19:00",
        "raw_dtg": "301119Z JUL 26",
        "msg_id": "HYDROARC 152/26",
        "year": 2026,
        "cancellations": [],
        "hazard_type": "general",
        "category": "other",
        "title": "General Warning",
        "geometry_kind": "polygon",
        "radius_nm": null,
        "body": "HYDROARC 152/26.\nKARA SEA.\nRUSSIA.\n1. SURVEY OPERATIONS IN PROGRESS UNTIL 30 SEP\n   IN AREA BOUND BY\n   66-54.00N 071-46.62E, 67-16.08N 072-23.60E,\n   67-22.60N 072-33.75E, 67-30.78N 072-47.65E,\n   67-28.55N 074-03.39E, 66-52.09N 073-30.39E,\n   66-20.86N 072-08.89E.\n   WIDE BERTH REQUESTED.\n2. CANCEL THIS MSG 010001Z OCT 26.",
        "cancel_date": null,
        "valid_from": "2026-07-30T11:19:00+00:00",
        "valid_until": "2026-10-01T00:01:00+00:00",
        "corrections": [],
        "summary": null
      }
    },
    {
      "type": "Feature",
      "id": "HYDROARC 154/26",
      "geometry": null,
      "properties": {
        "dtg": "2026-08-01T04:15:00",
        "raw_dtg": "010415Z AUG 26",
        "msg_id": "HYDROARC 154/26",
        "year": 2026,
        "cancellations": [
          "HYDROARC 147/26",
          "153/26"
        ],
        "hazard_type": "general",
        "category": "other",
        "title": "General Warning",
        "geometry_kind": "point",
        "radius_nm": null,
        "body": "311531Z JUL\nHYDROARC 154/26.\n1. HYDROARC WARNINGS IN FORCE AS OF 311531Z JUL.\n   ALL THE INFORCE WARNINGS ARE LISTED HERE.\n   152/2026, 149/2026, 146/2026, 141/2026, 126/2026.\n   180/2025, 178/2025, 175/2025, 148/2025, 145/2025,\n   103/2025. \n   283/2024.\n   163/2023.\n   198/2022.\n2. THE COMPLETE TEXT OF ALL IN-FORCE HYDROARC \n   BROADCAST WARNINGS ARE AVAILABLE ON THE NGA\n   MARITIME SAFETY INFORMATION WEBSITE AT:\n   MSI.NGA.MIL/NAVWARNINGS.\n   ALTERNATIVELY, THESE MAY BE REQUESTED BY E-MAIL\n   FROM NGA AT NAVSAFETY@NGA.MIL.\n3. CANCEL HYDROARC 147/26 AND 153/26.",
        "cancel_date": null,
        "valid_from": "2026-08-01T04:15:00+00:00",
        "valid_until": null,
        "corrections": [],
        "summary": null
      }
    },
    {
      "type": "Feature",
      "id": "HYDROARC 155/26",
      "geometry": {
        "type": "LineString",
        "coordinates": [
          [
            74.65333333333334,
            75.2035
          ],
          [
            80.383,
            76.16533333333334
          ],
          [
            86.72683333333333,
            76.39366666666666
          ],
          [
            91.35283333333334,
            76.62466666666667
          ],
          [
            94.57116666666667,
            77.05966666666667
          ],
          [
            97.5165,
            77.6335
          ],
          [
            98.69333333333333,
            77.77083333333333
          ],
          [
            99.9065,
            77.74583333333334
          ],
          [
            105.9435,
            78.00233333333334
          ],
          [
            108.0885,
            77.941
          ],
          [
            116.95666666666666,
            77.246
          ],
          [
            124.36816666666667,
            76.927
          ],
          [
            129.08283333333333,
            77.03183333333334
          ],
          [
            129.46633333333332,
            75.9995
          ],
          [
            131.15166666666667,
            73.81616666666666
          ],
          [
            131.17216666666667,
            72.32433333333333
          ],
          [
            130.604,
            71.43966666666667
          ],
          [
            129.92916666666667,
            71.397
          ],
          [
            129.33483333333334,
            71.60916666666667
          ],
          [
            128.88883333333334,
            71.6395
          ]
        ]
      },
      "properties": {
        "dtg": "2026-08-05T12:58:00",
        "raw_dtg": "051258Z AUG 26",
        "msg_id": "HYDROARC 155/26",
        "year": 2026,
        "cancellations": [],
        "hazard_type": "cable",
        "category": "cable",
        "title": "Underwater Cable",
        "geometry_kind": "linestring",
        "radius_nm": null,
        "body": "HYDROARC 155/26.\nKARA SEA.\nLAPTEV SEA.\nRUSSIA.\n1. CABLE OPERATIONS 10 AUG THRU 30 NOV\n   BY M/V NORTON WAVE, CABLESHIP YAUZA,\n   M/V SOPHIA, AND M/V SIRIUS\n   ALONG TRACKLINE JOINING\n   75-12.21N 074-39.20E, 76-09.92N 080-22.98E,\n   76-23.62N 086-43.61E, 76-37.48N 091-21.17E,\n   77-03.58N 094-34.27E, 77-38.01N 097-30.99E,\n   77-46.25N 098-41.60E, 77-44.75N 099-54.39E,\n   78-00.14N 105-56.61E, 77-56.46N 108-05.31E,\n   77-14.76N 116-57.40E, 76-55.62N 124-22.09E,\n   77-01.91N 129-04.97E, 75-59.97N 129-27.98E,\n   73-48.97N 131-09.10E, 72-19.46N 131-10.33E,\n   71-26.38N 130-36.24E, 71-23.82N 129-55.75E,\n   71-36.55N 129-20.09E, 71-38.37N 128-53.33E.\n   TWO MILE BERTH REQUESTED.\n2. CANCEL THIS MSG 010001Z DEC 26.",
        "cancel_date": null,
        "valid_from": "2026-08-05T12:58:00+00:00",
        "valid_until": "2026-12-01T00:01:00+00:00",
        "corrections": [],
        "summary": null
      }
    },
    {
      "type": "Feature",
      "id": "KALININGRAD NAV WARN 170/26",
      "geometry": {
        "type": "Polygon",
        "coordinates": [
          [
            [
              20.133333333333333,
              55.333333333333336
            ],
            [
              20.416666666666668,
              55.333333333333336
            ],
            [
              20.416666666666668,
              55.126666666666665
            ],
            [
              20.133333333333333,
              55.126666666666665
            ],
            [
              20.133333333333333,
              55.333333333333336
            ]
          ]
        ]
      },
      "properties": {
        "dtg": "2026-07-31T21:00:00",
        "raw_dtg": "312100Z JUL 26",
        "msg_id": "KALININGRAD NAV WARN 170/26",
        "year": 2026,
        "cancellations": [],
        "hazard_type": "general",
        "category": "other",
        "title": "General Warning",
        "geometry_kind": "polygon",
        "radius_nm": null,
        "body": "[South-eastern Baltic] KALININGRAD NAV WARN 170/26\nSOUTHEASTERN BALTIC\n1. SHIPS EXERCISES 312100 UTC JUL THRU 312100 UTC AUG\nIN AREA TEMPORARILY DANGEROUS TO SHIPPING BR-42\n55-20.00N 020-08.00E 55-20.00N 020-25.00E\n55-07.60N 020-25.00E 55-07.60N 020-08.00E\n2. CANCEL THIS MESSAGE 312200 UTC AUG=",
        "cancel_date": null,
        "valid_from": "2026-07-31T21:00:00+00:00",
        "valid_until": "2026-08-31T22:00:00+00:00",
        "corrections": [],
        "summary": null
      }
    },
    {
      "type": "Feature",
      "id": "KALININGRAD NAV WARN 171/26",
      "geometry": {
        "type": "Polygon",
        "coordinates": [
          [
            [
              19.026666666666667,
              55.53333333333333
            ],
            [
              19.833333333333332,
              55.53333333333333
            ],
            [
              19.583333333333332,
              55.05
            ],
            [
              19.583333333333332,
              54.77333333333333
            ],
            [
              19.338333333333335,
              54.83833333333333
            ],
            [
              19.153333333333332,
              55.19166666666667
            ],
            [
              19.076666666666668,
              55.333333333333336
            ],
            [
              19.026666666666667,
              55.53333333333333
            ]
          ]
        ]
      },
      "properties": {
        "dtg": "2026-07-31T21:00:00",
        "raw_dtg": "312100Z JUL 26",
        "msg_id": "KALININGRAD NAV WARN 171/26",
        "year": 2026,
        "cancellations": [],
        "hazard_type": "general",
        "category": "other",
        "title": "General Warning",
        "geometry_kind": "polygon",
        "radius_nm": null,
        "body": "[South-eastern Baltic] KALININGRAD NAV WARN 171/26\nSOUTHEASTERN BALTIC\n1. SHIPS EXERCISES 312100 UTC JUL THRU 312100 UTC AUG\nIN AREA TEMPORARILY DANGEROUS TO SHIPPING\n55-32.00N 019-01.60E 55-32.00N 019-50.00E\n55-03.00N 019-35.00E 54-46.40N 019-35.00E\n54-50.30N 019-20.30E 55-11.50N 019-09.20E\n55-20.00N 019-04.60E\n2. CANCEL THIS MESSAGE 312200 UTC AUG=",
        "cancel_date": null,
        "valid_from": "2026-07-31T21:00:00+00:00",
        "valid_until": "2026-08-31T22:00:00+00:00",
        "corrections": [],
        "summary": null
      }
    },
    {
      "type": "Feature",
      "id": "KALININGRAD NAV WARN 172/26",
      "geometry": {
        "type": "Polygon",
        "coordinates": [
          [
            [
              19.05,
              55.9
            ],
            [
              20.25,
              55.5
            ],
            [
              20.25,
              55.06666666666667
            ],
            [
              20.1,
              54.958333333333336
            ],
            [
              19.916666666666668,
              54.958333333333336
            ],
            [
              19.833333333333332,
              54.833333333333336
            ],
            [
              19.416666666666668,
              54.833333333333336
            ],
            [
              19.05,
              55.9
            ]
          ]
        ]
      },
      "properties": {
        "dtg": "2026-07-31T21:00:00",
        "raw_dtg": "312100Z JUL 26",
        "msg_id": "KALININGRAD NAV WARN 172/26",
        "year": 2026,
        "cancellations": [],
        "hazard_type": "general",
        "category": "other",
        "title": "General Warning",
        "geometry_kind": "polygon",
        "radius_nm": null,
        "body": "[South-eastern Baltic] KALININGRAD NAV WARN 172/26\nSOUTHEASTERN BALTIC\n1. SHIPS EXERCISES 312100 UTC JUL THRU 312100 UTC AUG\nIN AREA TEMPORARILY DANGEROUS TO SHIPPING BR-117\n55-54.00N 019-03.00E 55-30.00N 020-15.00E\n55-04.00N 020-15.00E 54-57.50N 020-06.00E\n54-57.50N 019-55.00E 54-50.00N 019-50.00E\n54-50.00N 019-25.00E\n2. CANCEL THIS MESSAGE 312200 UTC AUG=",
        "cancel_date": null,
        "valid_from": "2026-07-31T21:00:00+00:00",
        "valid_until": "2026-08-31T22:00:00+00:00",
        "corrections": [],
        "summary": null
      }
    },
    {
      "type": "Feature",
      "id": "KALININGRAD NAV WARN 173/26",
      "geometry": {
        "type": "Polygon",
        "coordinates": [
          [
            [
              19.755,
              55.15833333333333
            ],
            [
              20.0,
              55.15833333333333
            ],
            [
              20.0,
              55.03333333333333
            ],
            [
              19.66,
              55.03333333333333
            ],
            [
              19.755,
              55.15833333333333
            ]
          ]
        ]
      },
      "properties": {
        "dtg": "2026-07-31T21:00:00",
        "raw_dtg": "312100Z JUL 26",
        "msg_id": "KALININGRAD NAV WARN 173/26",
        "year": 2026,
        "cancellations": [],
        "hazard_type": "general",
        "category": "other",
        "title": "General Warning",
        "geometry_kind": "polygon",
        "radius_nm": null,
        "body": "[South-eastern Baltic] KALININGRAD NAV WARN 173/26\nSOUTHEASTERN BALTIC\n1. SHIPS EXERCISES 312100 UTC JUL THRU 312100 UTC AUG\nIN AREA TEMPORARILY DANGEROUS TO SHIPPING BR-161\n55-09.50N 019-45.30E 55-09.50N 020-00.00E\n55-02.00N 020-00.00E 55-02.00N 019-39.60E\n2. CANCEL THIS MESSAGE 312200 UTC AUG=",
        "cancel_date": null,
        "valid_from": "2026-07-31T21:00:00+00:00",
        "valid_until": "2026-08-31T22:00:00+00:00",
        "corrections": [],
        "summary": null
      }
    },
    {
      "type": "Feature",
      "id": "NAVAREA XIX 45/26",
      "geometry": null,
      "properties": {
        "dtg": "2026-06-26T06:30:00",
        "raw_dtg": "260630Z JUN 26",
        "msg_id": "NAVAREA XIX 45/26",
        "year": 2026,
        "cancellations": [
          "NAVAREA XIX 1/25"
        ],
        "hazard_type": "general",
        "category": "other",
        "title": "General Warning",
        "geometry_kind": "point",
        "radius_nm": null,
        "body": "NAVAREA XIX 45/26\n\n1.THE NORWEGIAN GOVERNMENT HAS DECIDED THAT\n\nRUSSIAN FISHING VESSELS ONLY HAVE ACCESS TO THE\n\nFOLLOWING THREE PORTS ON THE NORWEGIAN MAINLAND:\n\n\n\nA.BAATSFJORD (NOBJF)\n\nB.KIRKENES (NOKKN)\n\nC.TROMSOE (NOTOS)\n\n\n\nA BAN ON ACCESS TO OTHER PORTS ON THE NORWEGIAN MAINLAND\n\nWILL APPLY FOR RUSSIAN FISHING VESSELS FROM 132200 UTC OCT 2022.\n\n2. CANCEL NAVAREA XIX 1/25",
        "cancel_date": null,
        "valid_from": "2026-06-26T06:30:00+00:00",
        "valid_until": null,
        "corrections": [],
        "summary": null
      }
    },
    {
      "type": "Feature",
      "id": "NAVAREA XIX 93/26",
      "geometry": null,
      "properties": {
        "dtg": "2026-07-22T06:30:00",
        "raw_dtg": "220630Z JUL 26",
        "msg_id": "NAVAREA XIX 93/26",
        "year": 2026,
        "cancellations": [
          "90/26"
        ],
        "hazard_type": "general",
        "category": "other",
        "title": "General Warning",
        "geometry_kind": "point",
        "radius_nm": null,
        "body": "NAVAREA XIX 93/26\n\n1. CANCEL NAVAREA 90\n\n2. CANCEL THIS MESSAGE\n\nPREVIOUS HF WARNINGS ISSUED NAVAREA XIX 90/26",
        "cancel_date": null,
        "valid_from": "2026-07-22T06:30:00+00:00",
        "valid_until": null,
        "corrections": [],
        "summary": null
      }
    },
    {
      "type": "Feature",
      "id": "NAVAREA XIX 95/26",
      "geometry": null,
      "properties": {
        "dtg": "2026-07-31T18:30:00",
        "raw_dtg": "311830Z JUL 26",
        "msg_id": "NAVAREA XIX 95/26",
        "year": 2026,
        "cancellations": [
          "NAVAREA XIX 94/26"
        ],
        "hazard_type": "general",
        "category": "other",
        "title": "General Warning",
        "geometry_kind": "point",
        "radius_nm": null,
        "body": "NAVAREA XIX 95/26\n\n1. NAVAREA XIX WARNINGS INFORCE AT 311830 UTC JUL 26\n\n2026 SERIES: 45, 87, 93, 95\n\n2. CANCEL NAVAREA XIX 94/26",
        "cancel_date": null,
        "valid_from": "2026-07-31T18:30:00+00:00",
        "valid_until": null,
        "corrections": [],
        "summary": null
      }
    },
    {
      "type": "Feature",
      "id": "NAVAREA XIX 97/26",
      "geometry": {
        "type": "MultiPoint",
        "coordinates": [
          [
            20.416666666666668,
            72.535
          ],
          [
            5.304,
            67.0275
          ],
          [
            7.2605,
            65.31233333333333
          ],
          [
            6.705,
            65.13333333333334
          ]
        ]
      },
      "properties": {
        "dtg": "2026-08-06T06:30:00",
        "raw_dtg": "060630Z AUG 26",
        "msg_id": "NAVAREA XIX 97/26",
        "year": 2026,
        "cancellations": [
          "NAVAREA XIX 96/26"
        ],
        "hazard_type": "general",
        "category": "other",
        "title": "General Warning",
        "geometry_kind": "multipoint",
        "radius_nm": null,
        "body": "NAVAREA XIX 97/26\n\n1. RIGLIST. CORRECT AT  060630 UTC AUG 26\n\nNORWEGIAN SEA: NORTH OF 65N, EAST OF 5W.\n\n\n\n72-32.10N 020-25.00E - TRANSOCEAN ENABLER\n\n67-01.65N 005-18.24E - TRANSOCEAN NORGE\n\n65-18.74N 007-15.63E - ISLAND INNOVATOR\n\n65-08.00N 006-42.30E - TRANSOCEAN ENCOURAGE\n\n\n\nNOTES:\n\nA. RIGS ARE PROTECTED BY A 500 METRE SAFETY ZONE.\n\nB. FOR RIGS LOCATED SOUTH OF 65N, REFER TO NAVAREA I WARNINGS OR VISIT WWW.UKHO.GOV.UK/RNW\n\n2. CANCEL NAVAREA XIX 96/26",
        "cancel_date": null,
        "valid_from": "2026-08-06T06:30:00+00:00",
        "valid_until": null,
        "corrections": [],
        "summary": null
      }
    },
    {
      "type": "Feature",
      "id": "NAVAREA XX 102/26",
      "geometry": {
        "type": "Point",
        "coordinates": [
          33.99616666666667,
          69.72966666666667
        ]
      },
      "properties": {
        "dtg": null,
        "raw_dtg": "",
        "msg_id": "NAVAREA XX 102/26",
        "year": 2026,
        "cancellations": [],
        "hazard_type": "general",
        "category": "other",
        "title": "General Warning",
        "geometry_kind": "point",
        "radius_nm": null,
        "body": "NAVAREA XX 102/26 CHARTS RUS 12000. BARENTS SEA. ANCHORAGE EQUIPMENT ESTABLISHED IN: 1. 69-43.78N 033-59.77E, 2. 69-43.80N 034-00.23E.= NNNN",
        "cancel_date": null,
        "valid_from": "2026-08-07T00:00:00+00:00",
        "valid_until": null,
        "corrections": [],
        "summary": null
      }
    },
    {
      "type": "Feature",
      "id": "PETERSBURG NAV WARN 121/26",
      "geometry": {
        "type": "Polygon",
        "coordinates": [
          [
            [
              27.54474457642808,
              59.81133333333333
            ],
            [
              27.544240077455072,
              59.817143716183175
            ],
            [
              27.54273042007786,
              59.822909878511126
            ],
            [
              27.540227093700636,
              59.82858793634016
            ],
            [
              27.536749150148687,
              59.83413467622171
            ],
            [
              27.53232305867248,
              59.839507884116045
            ],
            [
              27.526982504500694,
              59.84466666666666
            ],
            [
              27.52076813247529,
              59.8495717624234
            ],
            [
              27.513727237719728,
              59.85418584064577
            ],
            [
              27.5059134056945,
              59.858473785412436
            ],
            [
              27.497386104379444,
              59.8624029628746
            ],
            [
              27.48821023168649,
              59.86594346961926
            ],
            [
              27.478455621547376,
              59.86906836025229
            ],
            [
              27.468196512435252,
              59.871753852469105
            ],
            [
              27.457510982365083,
              59.87397950805239
            ],
            [
              27.446480354672804,
              59.87572838841927
            ],
            [
              27.435188579095627,
              59.87698718353414
            ],
            [
              27.423721592863856,
              59.87774631320611
            ],
            [
              27.412166666666668,
              59.878
            ],
            [
              27.40061174046948,
              59.87774631320611
            ],
            [
              27.38914475423771,
              59.87698718353414
            ],
            [
              27.37785297866053,
              59.87572838841927
            ],
            [
              27.366822350968253,
              59.87397950805239
            ],
            [
              27.356136820898083,
              59.871753852469105
            ],
            [
              27.34587771178596,
              59.86906836025229
            ],
            [
              27.336123101646844,
              59.86594346961926
            ],
            [
              27.32694722895389,
              59.8624029628746
            ],
            [
              27.318419927638836,
              59.858473785412436
            ],
            [
              27.310606095613608,
              59.85418584064577
            ],
            [
              27.303565200858046,
              59.8495717624234
            ],
            [
              27.29735082883264,
              59.84466666666666
            ],
            [
              27.292010274660857,
              59.839507884116045
            ],
            [
              27.28758418318465,
              59.83413467622171
            ],
            [
              27.2841062396327,
              59.82858793634016
            ],
            [
              27.281602913255476,
              59.822909878511126
            ],
            [
              27.280093255878263,
              59.817143716183175
            ],
            [
              27.279588756905255,
              59.81133333333333
            ],
            [
              27.280093255878263,
              59.805522950483486
            ],
            [
              27.281602913255476,
              59.799756788155534
            ],
            [
              27.2841062396327,
              59.7940787303265
            ],
            [
              27.28758418318465,
              59.78853199044495
            ],
            [
              27.292010274660857,
              59.783158782550615
            ],
            [
              27.29735082883264,
              59.778
            ],
            [
              27.303565200858046,
              59.77309490424326
            ],
            [
              27.310606095613608,
              59.76848082602089
            ],
            [
              27.318419927638836,
              59.764192881254225
            ],
            [
              27.32694722895389,
              59.76026370379206
            ],
            [
              27.336123101646844,
              59.7567231970474
            ],
            [
              27.34587771178596,
              59.75359830641437
            ],
            [
              27.356136820898083,
              59.750912814197555
            ],
            [
              27.366822350968253,
              59.74868715861427
            ],
            [
              27.37785297866053,
              59.74693827824739
            ],
            [
              27.38914475423771,
              59.74567948313252
            ],
            [
              27.40061174046948,
              59.74492035346055
            ],
            [
              27.412166666666668,
              59.74466666666666
            ],
            [
              27.423721592863856,
              59.74492035346055
            ],
            [
              27.435188579095627,
              59.74567948313252
            ],
            [
              27.446480354672804,
              59.74693827824739
            ],
            [
              27.457510982365083,
              59.74868715861427
            ],
            [
              27.468196512435252,
              59.750912814197555
            ],
            [
              27.478455621547376,
              59.75359830641437
            ],
            [
              27.48821023168649,
              59.7567231970474
            ],
            [
              27.497386104379444,
              59.76026370379206
            ],
            [
              27.5059134056945,
              59.764192881254225
            ],
            [
              27.513727237719728,
              59.76848082602089
            ],
            [
              27.52076813247529,
              59.77309490424326
            ],
            [
              27.526982504500694,
              59.778
            ],
            [
              27.53232305867248,
              59.783158782550615
            ],
            [
              27.536749150148687,
              59.78853199044495
            ],
            [
              27.540227093700636,
              59.7940787303265
            ],
            [
              27.54273042007786,
              59.799756788155534
            ],
            [
              27.544240077455072,
              59.805522950483486
            ],
            [
              27.54474457642808,
              59.81133333333333
            ]
          ]
        ]
      },
      "properties": {
        "dtg": "2026-06-23T09:17:00",
        "raw_dtg": "230917Z JUN 26",
        "msg_id": "PETERSBURG NAV WARN 121/26",
        "year": 2026,
        "cancellations": [],
        "hazard_type": "general",
        "category": "other",
        "title": "General Warning",
        "geometry_kind": "circle",
        "radius_nm": 4.0,
        "body": "[Gulf of Finland] PETERSBURG NAV WARN 121/26\n230906 UTC JUN\nPETERSBURG NAV WARN 121/26\nEASTERN GULF OF FINLAND\nAREAS TEMPORARILY DANGEROUS FOR SHIPPING ANCHORING\nAND OTHER GROUND TOUCH WORKS IN CONNECTION WITH DETECTION\nOF MINE-LIKE OBJECT 4 MILE RADIUS FROM\nPSN:59-48.68N 027-24.73E AND 59-49.69N 027-24.73E",
        "cancel_date": null,
        "valid_from": "2026-06-23T09:17:00+00:00",
        "valid_until": null,
        "corrections": [],
        "summary": null
      }
    },
    {
      "type": "Feature",
      "id": "PETERSBURG NAV WARN 151/26",
      "geometry": {
        "type": "Polygon",
        "coordinates": [
          [
            [
              29.0,
              60.141666666666666
            ],
            [
              29.25,
              60.141666666666666
            ],
            [
              29.25,
              60.05833333333333
            ],
            [
              29.0,
              60.05833333333333
            ],
            [
              29.0,
              60.141666666666666
            ]
          ]
        ]
      },
      "properties": {
        "dtg": "2026-07-31T21:00:00",
        "raw_dtg": "312100Z JUL 26",
        "msg_id": "PETERSBURG NAV WARN 151/26",
        "year": 2026,
        "cancellations": [],
        "hazard_type": "general",
        "category": "other",
        "title": "General Warning",
        "geometry_kind": "polygon",
        "radius_nm": null,
        "body": "[Gulf of Finland] PETERSBURG NAV WARN 151/26\nEASTERN GULF OF FINLAND\n1. SHIPS EXERCISES 312100 UTC JUL THRU 312100 UTC AUG\nIN AREA TEMPORARILY DANGEROUS TO SHIPPING KR-105\n60-08.50N 029-00.00E 60-08.50N 029-15.00E\n60-03.50N 029-15.00E 60-03.50N 029-00.00E\n2. CANCEL THIS MESSAGE 312200 UTC AUG=",
        "cancel_date": null,
        "valid_from": "2026-07-31T21:00:00+00:00",
        "valid_until": "2026-08-31T22:00:00+00:00",
        "corrections": [],
        "summary": null
      }
    },
    {
      "type": "Feature",
      "id": "PETERSBURG NAV WARN 152/26",
      "geometry": {
        "type": "Polygon",
        "coordinates": [
          [
            [
              28.761666666666667,
              60.17166666666667
            ],
            [
              28.91,
              60.17166666666667
            ],
            [
              28.91,
              60.06666666666667
            ],
            [
              28.566666666666666,
              60.06666666666667
            ],
            [
              28.566666666666666,
              60.11666666666667
            ],
            [
              28.761666666666667,
              60.17166666666667
            ]
          ]
        ]
      },
      "properties": {
        "dtg": "2026-07-31T21:00:00",
        "raw_dtg": "312100Z JUL 26",
        "msg_id": "PETERSBURG NAV WARN 152/26",
        "year": 2026,
        "cancellations": [],
        "hazard_type": "general",
        "category": "other",
        "title": "General Warning",
        "geometry_kind": "polygon",
        "radius_nm": null,
        "body": "[Gulf of Finland] PETERSBURG NAV WARN 152/26\nEASTERN GULF OF FINLAND\n1. SHIPS EXERCISES 312100 UTC JUL THRU 312100 UTC AUG\nIN AREA TEMPORARILY DANGEROUS TO SHIPPING KR-107\n60-10.30N 028-45.70E 60-10.30N 028-54.60E\n60-04.00N 028-54.60E 60-04.00N 028-34.00E\n60-07.00N 028-34.00E\n2. CANCEL THIS MESSAGE 312200 UTC AUG=",
        "cancel_date": null,
        "valid_from": "2026-07-31T21:00:00+00:00",
        "valid_until": "2026-08-31T22:00:00+00:00",
        "corrections": [],
        "summary": null
      }
    },
    {
      "type": "Feature",
      "id": "PETERSBURG NAV WARN 153/26",
      "geometry": {
        "type": "Polygon",
        "coordinates": [
          [
            [
              27.043333333333333,
              60.105
            ],
            [
              27.125,
              60.125
            ],
            [
              27.191666666666666,
              60.06
            ],
            [
              27.108333333333334,
              60.03666666666667
            ],
            [
              27.043333333333333,
              60.105
            ]
          ]
        ]
      },
      "properties": {
        "dtg": "2026-07-31T21:00:00",
        "raw_dtg": "312100Z JUL 26",
        "msg_id": "PETERSBURG NAV WARN 153/26",
        "year": 2026,
        "cancellations": [],
        "hazard_type": "general",
        "category": "other",
        "title": "General Warning",
        "geometry_kind": "polygon",
        "radius_nm": null,
        "body": "[Gulf of Finland] PETERSBURG NAV WARN 153/26\nEASTERN GULF OF FINLAND\n1. SHIPS EXERCISES 312100 UTC JUL THRU 312100 UTC AUG\nIN AREA TEMPORARILY DANGEROUS TO SHIPPING KR-114\n60-06.30N 027-02.60E 60-07.50N 027-07.50E\n60-03.60N 027-11.50E 60-02.20N 027-06.50E\n2. CANCEL THIS MESSAGE 312200 UTC AUG=",
        "cancel_date": null,
        "valid_from": "2026-07-31T21:00:00+00:00",
        "valid_until": "2026-08-31T22:00:00+00:00",
        "corrections": [],
        "summary": null
      }
    },
    {
      "type": "Feature",
      "id": "PETERSBURG NAV WARN 154/26",
      "geometry": {
        "type": "Polygon",
        "coordinates": [
          [
            [
              27.089166666666667,
              59.8905
            ],
            [
              27.1605,
              59.8905
            ],
            [
              27.1605,
              59.773833333333336
            ],
            [
              27.089166666666667,
              59.773833333333336
            ],
            [
              27.089166666666667,
              59.8905
            ]
          ]
        ]
      },
      "properties": {
        "dtg": "2026-07-31T21:00:00",
        "raw_dtg": "312100Z JUL 26",
        "msg_id": "PETERSBURG NAV WARN 154/26",
        "year": 2026,
        "cancellations": [],
        "hazard_type": "general",
        "category": "other",
        "title": "General Warning",
        "geometry_kind": "polygon",
        "radius_nm": null,
        "body": "[Gulf of Finland] PETERSBURG NAV WARN 154/26\nEASTERN GULF OF FINLAND\n1. SHIPS EXERCISES 312100 UTC JUL THRU 312100 UTC AUG\nIN AREA TEMPORARILY DANGEROUS TO SHIPPING\n59-53.43N 027-05.35E 59-53.43N 027-09.63E\n59-46.43N 027-09.63E 59-46.43N 027-05.35E\n2. CANCEL THIS MESSAGE 312200 UTC AUG=",
        "cancel_date": null,
        "valid_from": "2026-07-31T21:00:00+00:00",
        "valid_until": "2026-08-31T22:00:00+00:00",
        "corrections": [],
        "summary": null
      }
    },
    {
      "type": "Feature",
      "id": "PETERSBURG NAV WARN 155/26",
      "geometry": {
        "type": "Polygon",
        "coordinates": [
          [
            [
              27.275,
              60.00833333333333
            ],
            [
              27.566666666666666,
              60.09
            ],
            [
              27.8,
              59.88333333333333
            ],
            [
              27.516666666666666,
              59.8
            ],
            [
              27.275,
              60.00833333333333
            ]
          ]
        ]
      },
      "properties": {
        "dtg": "2026-07-30T20:50:00",
        "raw_dtg": "302050Z JUL 26",
        "msg_id": "PETERSBURG NAV WARN 155/26",
        "year": 2026,
        "cancellations": [],
        "hazard_type": "general",
        "category": "other",
        "title": "General Warning",
        "geometry_kind": "polygon",
        "radius_nm": null,
        "body": "[Gulf of Finland] PETERSBURG NAV WARN 155/26\nEASTERN GULF OF FINLAND\nSHIPS EXERCISES 312100 UTC JUL THRU 312100 UTC AUG\nIN AREA TEMPORARILY DANGEROUS TO SHIPPING\n60-00.50N 027-16.50E 60-05.40N 027-34.00E\n59-53.00N 027-48.00E 59-48.00N 027-31.00E\nCANCEL THIS MESSAGE 312200 UTC AUG",
        "cancel_date": null,
        "valid_from": "2026-07-30T20:50:00+00:00",
        "valid_until": "2026-08-31T22:00:00+00:00",
        "corrections": [],
        "summary": null
      }
    },
    {
      "type": "Feature",
      "id": "POLISH NAV WARN 170/26",
      "geometry": {
        "type": "Point",
        "coordinates": [
          16.609833333333334,
          54.6545
        ]
      },
      "properties": {
        "dtg": "2026-08-03T06:00:00",
        "raw_dtg": "030600Z AUG 26",
        "msg_id": "POLISH NAV WARN 170/26",
        "year": 2026,
        "cancellations": [],
        "hazard_type": "general",
        "category": "other",
        "title": "General Warning",
        "geometry_kind": "point",
        "radius_nm": null,
        "body": "[Southern Baltic] POLISH NAV WARN 170/26\nSOUTHERN BALTIC. POLISH COAST. NE OF JAROSLAWIEC\nDUE TO MILITARY EXERCISES ZONE IS CLOSED FOR SHIPPING AND FISHERY:\nS-6 CENTERED 54-39.27N 016-36.59E\nON 2026-08-03 FROM 06:00 TO 21:59\nON 2026-08-04 FROM 03:00 TO 21:59\nON 2026-08-05 FROM 06:00 TO 21:59\nON 2026-08-06 FROM 03:00 TO 21:59\nON 2026-08-07 FROM 06:00 TO 21:59\nON 2026-08-08 FROM 06:00 TO 21:59\nTIME IN UTC.\nZONE IS CLOSED\nCANCEL THIS MSG 082159 UTC AUG",
        "cancel_date": null,
        "valid_from": "2026-08-03T06:00:00+00:00",
        "valid_until": "2026-08-08T21:59:00+00:00",
        "corrections": [],
        "summary": null
      }
    },
    {
      "type": "Feature",
      "id": "PRIP ARKHANGELSK 75/26",
      "geometry": {
        "type": "Polygon",
        "coordinates": [
          [
            [
              39.0,
              66.10666666666667
            ],
            [
              40.59,
              66.50166666666667
            ],
            [
              41.61666666666667,
              66.17
            ],
            [
              40.306666666666665,
              64.95333333333333
            ],
            [
              40.28,
              64.93666666666667
            ],
            [
              40.225,
              64.9
            ],
            [
              40.0,
              64.75333333333333
            ],
            [
              39.95,
              64.72333333333333
            ],
            [
              39.391666666666666,
              64.59666666666666
            ],
            [
              37.71333333333333,
              65.0
            ],
            [
              39.0,
              66.10666666666667
            ]
          ]
        ]
      },
      "properties": {
        "dtg": "2026-08-01T04:15:16.014701+00:00",
        "raw_dtg": "ПРИП АРХАНГЕЛЬСК 75/26  КАРТЫ  12006 12007 \r\nБЕЛОЕ МОРЕ",
        "msg_id": "PRIP ARKHANGELSK 75/26",
        "year": 2026,
        "cancellations": [],
        "hazard_type": "hazardous operations",
        "category": "military",
        "title": "Hazardous Operations",
        "geometry_kind": "polygon",
        "radius_nm": null,
        "body": "ПРИП АРХАНГЕЛЬСК 75 КАРТЫ  12006 12007 \nБЕЛОЕ МОРЕ\n1. СТРЕЛЬБЫ РАКЕТНЫЕ 062200 ПО 072000  \n072200 ПО 082000 082200 ПО 092000 АВГ\nРАЙОНЕ ЗАПРЕТНОМ ДЛЯ ПЛАВАНИЯ\n66-06.4С 039-00.0В\nДАЛЕЕ ПО БЕРЕГОВОЙ ЛИНИИ ДО\n66-30.1С 040-35.4В\n66-10.2С 041-37.0В\nДАЛЕЕ ПО БЕРЕГОВОЙ ЛИНИИ ДО\n64-57.2С 040-18.4В\n64-56.2С 040-16.8В\nДАЛЕЕ ПО БЕРЕГОВОЙ ЛИНИИ ДО\n64-54.0С 040-13.5В\n64-45.2С 040-00.0В\nДАЛЕЕ ПО БЕРЕГОВОЙ ЛИНИИ ДО\n64-43.4С 039-57.0В\n64-35.8С 039-23.5В\nДАЛЕЕ ПО БЕРЕГОВОЙ ЛИНИИ ДО\n65-00.0С 037-42.8В\n2. ОТМ ЭТОТ НР 092100 АВГ=\n311600 МСК ГС-",
        "cancel_date": null,
        "valid_from": "2026-08-01T04:15:16.014701+00:00",
        "valid_until": "2026-08-09T21:00:00+00:00",
        "corrections": [],
        "summary": null
      }
    },
    {
      "type": "Feature",
      "id": "PRIP ARKHANGELSK 81/26#grp1",
      "geometry": {
        "type": "Polygon",
        "coordinates": [
          [
            [
              34.1,
              66.225
            ],
            [
              34.483333333333334,
              66.53833333333333
            ],
            [
              40.61666666666667,
              66.505
            ],
            [
              41.625,
              66.17833333333333
            ],
            [
              40.05,
              65.105
            ],
            [
              34.1,
              66.225
            ]
          ]
        ]
      },
      "properties": {
        "parent_id": "PRIP ARKHANGELSK 81/26",
        "group_index": 1,
        "dtg": "2026-08-05T03:52:37.426242+00:00",
        "raw_dtg": "ПРИП АРХАНГЕЛЬСК 81/26 КАРТА 91306\r\nБЕЛОЕ МОРЕ",
        "year": 2026,
        "hazard_type": "hazardous operations",
        "category": "military",
        "title": "Hazardous Operations",
        "body": "ПРИП АРХАНГЕЛЬСК 81 КАРТА 91306\nБЕЛОЕ МОРЕ\n1. СТРЕЛЬБЫ РАКЕТНЫЕ 091200 ПО 111500 АВГ\nРАЙОНАХ ЗАПРЕТНЫХ ДЛЯ ПЛАВАНИЯ\nА. 66-13.5С 034-06.0В\n66-32.3С 034-29.0В\nДАЛЕЕ ПО БЕРЕГОВОЙ ЛИНИИ ДО\n66-30.3С 040-37.0В\n66-10.7С 041-37.5В\nДАЛЕЕ ПО БЕРЕГОВОЙ ЛИНИИ ДО\n65-06.3С 040-03.0В\nБ. 66-30.8С 042-14.0В\n66-40.8С 042-35.2В\nДАЛЕЕ ПО БЕРЕГОВОЙ ЛИНИИ ДО\n66-42.5С 042-40.0В\n67-12.5С 043-46.3В\nДАЛЕЕ ПО БЕРЕГОВОЙ ЛИНИИ ДО\n66-14.5С 044-05.0В\n66-14.5С 043-40.0В\nДАЛЕЕ ПО БЕРЕГОВОЙ ЛИНИИ ДО\n66-30.8С 042-14.0В\n2. ОТМ ЭТОТ НР 111600 АВГ=\n041600 МСК ГС-",
        "cancel_date": null,
        "valid_from": "2026-08-05T03:52:37.426242+00:00",
        "valid_until": "2026-08-11T16:00:00+00:00",
        "corrections": [],
        "summary": null
      }
    },
    {
      "type": "Feature",
      "id": "PRIP ARKHANGELSK 81/26#grp2",
      "geometry": {
        "type": "Polygon",
        "coordinates": [
          [
            [
              42.233333333333334,
              66.51333333333334
            ],
            [
              42.586666666666666,
              66.68
            ],
            [
              42.666666666666664,
              66.70833333333333
            ],
            [
              43.77166666666667,
              67.20833333333333
            ],
            [
              44.083333333333336,
              66.24166666666666
            ],
            [
              43.666666666666664,
              66.24166666666666
            ],
            [
              42.233333333333334,
              66.51333333333334
            ]
          ]
        ]
      },
      "properties": {
        "parent_id": "PRIP ARKHANGELSK 81/26",
        "group_index": 2,
        "dtg": "2026-08-05T03:52:37.426242+00:00",
        "raw_dtg": "ПРИП АРХАНГЕЛЬСК 81/26 КАРТА 91306\r\nБЕЛОЕ МОРЕ",
        "year": 2026,
        "hazard_type": "hazardous operations",
        "category": "military",
        "title": "Hazardous Operations",
        "body": "ПРИП АРХАНГЕЛЬСК 81 КАРТА 91306\nБЕЛОЕ МОРЕ\n1. СТРЕЛЬБЫ РАКЕТНЫЕ 091200 ПО 111500 АВГ\nРАЙОНАХ ЗАПРЕТНЫХ ДЛЯ ПЛАВАНИЯ\nА. 66-13.5С 034-06.0В\n66-32.3С 034-29.0В\nДАЛЕЕ ПО БЕРЕГОВОЙ ЛИНИИ ДО\n66-30.3С 040-37.0В\n66-10.7С 041-37.5В\nДАЛЕЕ ПО БЕРЕГОВОЙ ЛИНИИ ДО\n65-06.3С 040-03.0В\nБ. 66-30.8С 042-14.0В\n66-40.8С 042-35.2В\nДАЛЕЕ ПО БЕРЕГОВОЙ ЛИНИИ ДО\n66-42.5С 042-40.0В\n67-12.5С 043-46.3В\nДАЛЕЕ ПО БЕРЕГОВОЙ ЛИНИИ ДО\n66-14.5С 044-05.0В\n66-14.5С 043-40.0В\nДАЛЕЕ ПО БЕРЕГОВОЙ ЛИНИИ ДО\n66-30.8С 042-14.0В\n2. ОТМ ЭТОТ НР 111600 АВГ=\n041600 МСК ГС-",
        "cancel_date": null,
        "valid_from": "2026-08-05T03:52:37.426242+00:00",
        "valid_until": "2026-08-11T16:00:00+00:00",
        "corrections": [],
        "summary": null
      }
    },
    {
      "type": "Feature",
      "id": "PRIP ARKHANGELSK 82/26#grp1",
      "geometry": {
        "type": "Polygon",
        "coordinates": [
          [
            [
              34.1,
              66.225
            ],
            [
              34.483333333333334,
              66.53833333333333
            ],
            [
              39.096666666666664,
              66.1
            ],
            [
              34.64,
              66.0
            ],
            [
              34.1,
              66.225
            ]
          ]
        ]
      },
      "properties": {
        "parent_id": "PRIP ARKHANGELSK 82/26",
        "group_index": 1,
        "dtg": "2026-08-07T03:42:49.626849+00:00",
        "raw_dtg": "ПРИП АРХАНГЕЛЬСК 82/26  КАРТА 91306\r\nБЕЛОЕ МОРЕ",
        "year": 2026,
        "hazard_type": "hazardous operations",
        "category": "military",
        "title": "Hazardous Operations",
        "body": "ПРИП АРХАНГЕЛЬСК 82 КАРТА 91306\nБЕЛОЕ МОРЕ\n1. СТРЕЛЬБЫ РАКЕТНЫЕ 111500 ПО 131500 АВГ\nРАЙОНАХ ЗАПРЕТНЫХ ДЛЯ ПЛАВАНИЯ\nА. 66-13.5С 034-06.0В\n66-32.3С 034-29.0В\nДАЛЕЕ ПО БЕРЕГОВОЙ ЛИНИИ ДО\n66-06.0С 039-05.8В\n66-00.0С 034-38.4В\nДАЛЕЕ ПО БЕРЕГОВОЙ ЛИНИИ ДО\n66-13.5С 034-06.0В ИСКЛЮЧАЯ БЕРЕГОВУЮ ЧАСТЬ\nБ. 66-30.0С 040-37.0В\nДАЛЕЕ ПО БЕРЕГОВОЙ ЛИНИИ ДО\n67-41.7С 040-59.0В\n67-52.7С 044-08.2В\nДАЛЕЕ ПО БЕРЕГОВОЙ ЛИНИИ ДО\n66-30.7С 044-23.0В\n66-30.3С 042-14.0В\n66-30.0С 040-37.0В ИСКЛЮЧАЯ ОСТРОВ МОРЖОВЕЦ\n2. ОТМ ЭТОТ НР 131600 АВГ=\n061100 МСК ГС-",
        "cancel_date": null,
        "valid_from": "2026-08-07T03:42:49.626849+00:00",
        "valid_until": "2026-08-13T16:00:00+00:00",
        "corrections": [],
        "summary": null
      }
    },
    {
      "type": "Feature",
      "id": "PRIP ARKHANGELSK 82/26#grp2",
      "geometry": {
        "type": "Polygon",
        "coordinates": [
          [
            [
              40.61666666666667,
              66.5
            ],
            [
              40.983333333333334,
              67.695
            ],
            [
              44.13666666666666,
              67.87833333333333
            ],
            [
              44.38333333333333,
              66.51166666666667
            ],
            [
              42.233333333333334,
              66.505
            ],
            [
              40.61666666666667,
              66.5
            ]
          ]
        ]
      },
      "properties": {
        "parent_id": "PRIP ARKHANGELSK 82/26",
        "group_index": 2,
        "dtg": "2026-08-07T03:42:49.626849+00:00",
        "raw_dtg": "ПРИП АРХАНГЕЛЬСК 82/26  КАРТА 91306\r\nБЕЛОЕ МОРЕ",
        "year": 2026,
        "hazard_type": "hazardous operations",
        "category": "military",
        "title": "Hazardous Operations",
        "body": "ПРИП АРХАНГЕЛЬСК 82 КАРТА 91306\nБЕЛОЕ МОРЕ\n1. СТРЕЛЬБЫ РАКЕТНЫЕ 111500 ПО 131500 АВГ\nРАЙОНАХ ЗАПРЕТНЫХ ДЛЯ ПЛАВАНИЯ\nА. 66-13.5С 034-06.0В\n66-32.3С 034-29.0В\nДАЛЕЕ ПО БЕРЕГОВОЙ ЛИНИИ ДО\n66-06.0С 039-05.8В\n66-00.0С 034-38.4В\nДАЛЕЕ ПО БЕРЕГОВОЙ ЛИНИИ ДО\n66-13.5С 034-06.0В ИСКЛЮЧАЯ БЕРЕГОВУЮ ЧАСТЬ\nБ. 66-30.0С 040-37.0В\nДАЛЕЕ ПО БЕРЕГОВОЙ ЛИНИИ ДО\n67-41.7С 040-59.0В\n67-52.7С 044-08.2В\nДАЛЕЕ ПО БЕРЕГОВОЙ ЛИНИИ ДО\n66-30.7С 044-23.0В\n66-30.3С 042-14.0В\n66-30.0С 040-37.0В ИСКЛЮЧАЯ ОСТРОВ МОРЖОВЕЦ\n2. ОТМ ЭТОТ НР 131600 АВГ=\n061100 МСК ГС-",
        "cancel_date": null,
        "valid_from": "2026-08-07T03:42:49.626849+00:00",
        "valid_until": "2026-08-13T16:00:00+00:00",
        "corrections": [],
        "summary": null
      }
    },
    {
      "type": "Feature",
      "id": "PRIP ARKHANGELSK 83/26",
      "geometry": {
        "type": "Polygon",
        "coordinates": [
          [
            [
              38.43333333333333,
              65.28333333333333
            ],
            [
              39.28333333333333,
              65.28333333333333
            ],
            [
              39.28333333333333,
              64.8
            ],
            [
              38.46666666666667,
              64.8
            ],
            [
              38.45,
              64.81666666666666
            ],
            [
              38.43333333333333,
              65.28333333333333
            ]
          ]
        ]
      },
      "properties": {
        "dtg": "2026-08-07T03:42:49.626469+00:00",
        "raw_dtg": "ПРИП АРХАНГЕЛЬСК 83/26 КАРТА 12007\r\nДВИНСКИЙ ЗАЛИВ",
        "msg_id": "PRIP ARKHANGELSK 83/26",
        "year": 2026,
        "cancellations": [],
        "hazard_type": "hazardous operations",
        "category": "military",
        "title": "Hazardous Operations",
        "geometry_kind": "polygon",
        "radius_nm": null,
        "body": "ПРИП АРХАНГЕЛЬСК 83 КАРТА 12007\nДВИНСКИЙ ЗАЛИВ\n1. СТРЕЛЬБЫ АРТИЛЛЕРИЙСКИЕ 122100 ПО 131700 АВГ \nРАЙОНЕ ЗАПРЕТНОМ ДЛЯ ПЛАВАНИЯ\n65-17.0С 038-26.0В 65-17.0С 039-17.0В \n64-48.0С 039-17.0В 64-48.0С 038-28.0В\n64-49.0С 038-27.0В\n2. ОТМ ЭТОТ НР 131800 АВГ=\n061100 МСК ГС-",
        "cancel_date": null,
        "valid_from": "2026-08-07T03:42:49.626469+00:00",
        "valid_until": "2026-08-13T18:00:00+00:00",
        "corrections": [],
        "summary": null
      }
    },
    {
      "type": "Feature",
      "id": "PRIP MURMANSK 198/26",
      "geometry": {
        "type": "Polygon",
        "coordinates": [
          [
            [
              33.03055555555555,
              68.97500000000001
            ],
            [
              33.03777777777778,
              68.97500000000001
            ],
            [
              33.0375,
              68.9738888888889
            ],
            [
              33.025555555555556,
              68.95833333333334
            ],
            [
              33.01166666666666,
              68.95833333333334
            ],
            [
              33.03055555555555,
              68.97500000000001
            ]
          ]
        ]
      },
      "properties": {
        "dtg": "2026-05-29T01:36:28.936392+00:00",
        "raw_dtg": "ПРИП МУРМАНСК 198/26 КАРТА 17055\r\nКОЛЬСКИЙ ЗАЛИВ",
        "msg_id": "PRIP MURMANSK 198/26",
        "year": 2026,
        "cancellations": [],
        "hazard_type": "general",
        "category": "other",
        "title": "General Warning",
        "geometry_kind": "polygon",
        "radius_nm": null,
        "body": "1. ГИДРОТЕХНИЧЕСКИЕ РАБОТЫ ПО ОЧИСТКЕ АКВАТОРИИ\n29 МАЙ ПО 30 НОЯБ С УСТАНОВКОЙ ВСПОМОГАТЕЛЬНОГО\nПЕРЕМЕЩАЕМОГО РЕЙДОВОГО ОБОРУДОВАНИЯ РАЙОНЕ\n68-58-30С 033-01-50В\n68-58-30С 033-02-16В\n68-58-26С 033-02-15В\n68-57-30С 033-01-32В\n68-57-30С 033-00-42В\nДАЛЕЕ ПО БЕРЕГОВОЙ ЛИНИИ ДО\n68-58-30С 033-01-50В\nПРИ ПЛАВАНИИ СОБЛЮДАТЬ ОСТОРОЖНОСТЬ\n2. ОТМ ЭТОТ НР 01 ДЕК=\n281000 МСК  ГС-",
        "cancel_date": null,
        "valid_from": "2026-05-29T01:36:28.936392+00:00",
        "valid_until": "2026-12-01T00:00:00+00:00",
        "corrections": [],
        "summary": null
      }
    },
    {
      "type": "Feature",
      "id": "PRIP MURMANSK 250/26",
      "geometry": {
        "type": "Point",
        "coordinates": [
          32.94383333333333,
          69.51716666666667
        ]
      },
      "properties": {
        "dtg": "2026-07-10T04:42:52.470781+00:00",
        "raw_dtg": "ПРИП МУРМАНСК 250/26 КАРТА 12000\r\n\r\nМОТОВСКИЙ ЗАЛИВ",
        "msg_id": "PRIP MURMANSK 250/26",
        "year": 2026,
        "cancellations": [],
        "hazard_type": "general",
        "category": "other",
        "title": "General Warning",
        "geometry_kind": "point",
        "radius_nm": null,
        "body": "ПРИП МУРМАНСК 250 КАРТА 12000\nМОТОВСКИЙ ЗАЛИВ\n1. ЗАПРЕТНЫЙ ПЛАВАНИЯ ВСЕХ СУДОВ 11 ИЮЛЬ\nПО 10 АВГ КРУГЛОСУТОЧНО РАЙОН РАДИУСОМ\n1 МИЛЯ ИЗ 69-31.03С 032-56.63В\n2. ОТМ ЭТОТ НР 11 АВГ=\n091000 МСК  ГС-",
        "cancel_date": null,
        "valid_from": "2026-07-10T04:42:52.470781+00:00",
        "valid_until": "2026-08-11T00:00:00+00:00",
        "corrections": [],
        "summary": null
      }
    },
    {
      "type": "Feature",
      "id": "PRIP MURMANSK 264/26#grp1",
      "geometry": {
        "type": "LineString",
        "coordinates": [
          [
            55.666666666666664,
            70.63333333333334
          ],
          [
            55.21666666666667,
            70.55
          ],
          [
            53.35,
            70.66666666666667
          ],
          [
            51.0,
            71.58333333333333
          ],
          [
            51.56666666666667,
            71.63333333333334
          ]
        ]
      },
      "properties": {
        "parent_id": "PRIP MURMANSK 264/26",
        "group_index": 1,
        "dtg": "2026-07-24T04:00:45.788355+00:00",
        "raw_dtg": "ПРИП МУРМАНСК 264/26 ПРИП МУРМАНСК 264 КАРТЫ 10100 10103\r\n\r\nБАРЕНЦЕВО И КАРСКОЕ МОРЯ",
        "year": 2026,
        "hazard_type": "general",
        "category": "other",
        "title": "General Warning",
        "body": "1.ЗАПРЕТНЫЕ ПЛАВАНИЯ ВСЕХ СУДОВ 23 ИЮЛЬ ПО 22 АВГ\nКРУГЛОСУТОЧНО РАЙОНЫ\nА. РАЙОН НР 191 МЕЖДУ БЕРЕГОМ И\n70-38.0С 055-40.0В\n70-33.0С 055-13.0В\n70-40.0С 053-21.0В\n71-35.0С 051-00.0В\n71-38.0С 051-34.0В\nБ. РАЙОН НР 192 МЕЖДУ БЕРЕГОМ И\n72-43.0С 052-25.0В\n72-44.0С 051-45.0В\n73-29.0С 053-20.0В\n73-46.0С 053-20.0В\n74-18.0С 054-40.0В\n75-21.0С 055-42.0В\n76-24.0С 060-45.0В\n76-16.0С 061-10.0В\nВ. РАЙОН НР 193 МЕЖДУ БЕРЕГОМ И\n75-35.0С 063-27.0В\n75-28.0С 063-50.0В\n75-10.0С 062-05.0В\n74-15.0С 059-40.0В\n73-18.0С 057-30.0В\n72-39.0С 056-38.0В\n72-40.0С 055-56.0В\nГ. РАЙОН НР 194 МЕЖДУ БЕРЕГОМ И\n72-00.0С 055-24.0В\n70-55.0С 056-52.0В\n2. ОТМ ЭТОТ НР 23 АВГ=\n221000 МСК  ГС-",
        "cancel_date": null,
        "valid_from": "2026-07-24T04:00:45.788355+00:00",
        "valid_until": "2026-08-23T00:00:00+00:00",
        "corrections": [],
        "summary": null
      }
    },
    {
      "type": "Feature",
      "id": "PRIP MURMANSK 264/26#grp2",
      "geometry": {
        "type": "LineString",
        "coordinates": [
          [
            52.416666666666664,
            72.71666666666667
          ],
          [
            51.75,
            72.73333333333333
          ],
          [
            53.333333333333336,
            73.48333333333333
          ],
          [
            53.333333333333336,
            73.76666666666667
          ],
          [
            54.666666666666664,
            74.3
          ],
          [
            55.7,
            75.35
          ],
          [
            60.75,
            76.4
          ],
          [
            61.166666666666664,
            76.26666666666667
          ]
        ]
      },
      "properties": {
        "parent_id": "PRIP MURMANSK 264/26",
        "group_index": 2,
        "dtg": "2026-07-24T04:00:45.788355+00:00",
        "raw_dtg": "ПРИП МУРМАНСК 264/26 ПРИП МУРМАНСК 264 КАРТЫ 10100 10103\r\n\r\nБАРЕНЦЕВО И КАРСКОЕ МОРЯ",
        "year": 2026,
        "hazard_type": "general",
        "category": "other",
        "title": "General Warning",
        "body": "1.ЗАПРЕТНЫЕ ПЛАВАНИЯ ВСЕХ СУДОВ 23 ИЮЛЬ ПО 22 АВГ\nКРУГЛОСУТОЧНО РАЙОНЫ\nА. РАЙОН НР 191 МЕЖДУ БЕРЕГОМ И\n70-38.0С 055-40.0В\n70-33.0С 055-13.0В\n70-40.0С 053-21.0В\n71-35.0С 051-00.0В\n71-38.0С 051-34.0В\nБ. РАЙОН НР 192 МЕЖДУ БЕРЕГОМ И\n72-43.0С 052-25.0В\n72-44.0С 051-45.0В\n73-29.0С 053-20.0В\n73-46.0С 053-20.0В\n74-18.0С 054-40.0В\n75-21.0С 055-42.0В\n76-24.0С 060-45.0В\n76-16.0С 061-10.0В\nВ. РАЙОН НР 193 МЕЖДУ БЕРЕГОМ И\n75-35.0С 063-27.0В\n75-28.0С 063-50.0В\n75-10.0С 062-05.0В\n74-15.0С 059-40.0В\n73-18.0С 057-30.0В\n72-39.0С 056-38.0В\n72-40.0С 055-56.0В\nГ. РАЙОН НР 194 МЕЖДУ БЕРЕГОМ И\n72-00.0С 055-24.0В\n70-55.0С 056-52.0В\n2. ОТМ ЭТОТ НР 23 АВГ=\n221000 МСК  ГС-",
        "cancel_date": null,
        "valid_from": "2026-07-24T04:00:45.788355+00:00",
        "valid_until": "2026-08-23T00:00:00+00:00",
        "corrections": [],
        "summary": null
      }
    },
    {
      "type": "Feature",
      "id": "PRIP MURMANSK 264/26#grp3",
      "geometry": {
        "type": "LineString",
        "coordinates": [
          [
            63.45,
            75.58333333333333
          ],
          [
            63.833333333333336,
            75.46666666666667
          ],
          [
            62.083333333333336,
            75.16666666666667
          ],
          [
            59.666666666666664,
            74.25
          ],
          [
            57.5,
            73.3
          ],
          [
            56.63333333333333,
            72.65
          ],
          [
            55.93333333333333,
            72.66666666666667
          ]
        ]
      },
      "properties": {
        "parent_id": "PRIP MURMANSK 264/26",
        "group_index": 3,
        "dtg": "2026-07-24T04:00:45.788355+00:00",
        "raw_dtg": "ПРИП МУРМАНСК 264/26 ПРИП МУРМАНСК 264 КАРТЫ 10100 10103\r\n\r\nБАРЕНЦЕВО И КАРСКОЕ МОРЯ",
        "year": 2026,
        "hazard_type": "general",
        "category": "other",
        "title": "General Warning",
        "body": "1.ЗАПРЕТНЫЕ ПЛАВАНИЯ ВСЕХ СУДОВ 23 ИЮЛЬ ПО 22 АВГ\nКРУГЛОСУТОЧНО РАЙОНЫ\nА. РАЙОН НР 191 МЕЖДУ БЕРЕГОМ И\n70-38.0С 055-40.0В\n70-33.0С 055-13.0В\n70-40.0С 053-21.0В\n71-35.0С 051-00.0В\n71-38.0С 051-34.0В\nБ. РАЙОН НР 192 МЕЖДУ БЕРЕГОМ И\n72-43.0С 052-25.0В\n72-44.0С 051-45.0В\n73-29.0С 053-20.0В\n73-46.0С 053-20.0В\n74-18.0С 054-40.0В\n75-21.0С 055-42.0В\n76-24.0С 060-45.0В\n76-16.0С 061-10.0В\nВ. РАЙОН НР 193 МЕЖДУ БЕРЕГОМ И\n75-35.0С 063-27.0В\n75-28.0С 063-50.0В\n75-10.0С 062-05.0В\n74-15.0С 059-40.0В\n73-18.0С 057-30.0В\n72-39.0С 056-38.0В\n72-40.0С 055-56.0В\nГ. РАЙОН НР 194 МЕЖДУ БЕРЕГОМ И\n72-00.0С 055-24.0В\n70-55.0С 056-52.0В\n2. ОТМ ЭТОТ НР 23 АВГ=\n221000 МСК  ГС-",
        "cancel_date": null,
        "valid_from": "2026-07-24T04:00:45.788355+00:00",
        "valid_until": "2026-08-23T00:00:00+00:00",
        "corrections": [],
        "summary": null
      }
    },
    {
      "type": "Feature",
      "id": "PRIP MURMANSK 264/26#grp4",
      "geometry": {
        "type": "LineString",
        "coordinates": [
          [
            55.4,
            72.0
          ],
          [
            56.86666666666667,
            70.91666666666667
          ]
        ]
      },
      "properties": {
        "parent_id": "PRIP MURMANSK 264/26",
        "group_index": 4,
        "dtg": "2026-07-24T04:00:45.788355+00:00",
        "raw_dtg": "ПРИП МУРМАНСК 264/26 ПРИП МУРМАНСК 264 КАРТЫ 10100 10103\r\n\r\nБАРЕНЦЕВО И КАРСКОЕ МОРЯ",
        "year": 2026,
        "hazard_type": "general",
        "category": "other",
        "title": "General Warning",
        "body": "1.ЗАПРЕТНЫЕ ПЛАВАНИЯ ВСЕХ СУДОВ 23 ИЮЛЬ ПО 22 АВГ\nКРУГЛОСУТОЧНО РАЙОНЫ\nА. РАЙОН НР 191 МЕЖДУ БЕРЕГОМ И\n70-38.0С 055-40.0В\n70-33.0С 055-13.0В\n70-40.0С 053-21.0В\n71-35.0С 051-00.0В\n71-38.0С 051-34.0В\nБ. РАЙОН НР 192 МЕЖДУ БЕРЕГОМ И\n72-43.0С 052-25.0В\n72-44.0С 051-45.0В\n73-29.0С 053-20.0В\n73-46.0С 053-20.0В\n74-18.0С 054-40.0В\n75-21.0С 055-42.0В\n76-24.0С 060-45.0В\n76-16.0С 061-10.0В\nВ. РАЙОН НР 193 МЕЖДУ БЕРЕГОМ И\n75-35.0С 063-27.0В\n75-28.0С 063-50.0В\n75-10.0С 062-05.0В\n74-15.0С 059-40.0В\n73-18.0С 057-30.0В\n72-39.0С 056-38.0В\n72-40.0С 055-56.0В\nГ. РАЙОН НР 194 МЕЖДУ БЕРЕГОМ И\n72-00.0С 055-24.0В\n70-55.0С 056-52.0В\n2. ОТМ ЭТОТ НР 23 АВГ=\n221000 МСК  ГС-",
        "cancel_date": null,
        "valid_from": "2026-07-24T04:00:45.788355+00:00",
        "valid_until": "2026-08-23T00:00:00+00:00",
        "corrections": [],
        "summary": null
      }
    },
    {
      "type": "Feature",
      "id": "PRIP MURMANSK 270/26",
      "geometry": {
        "type": "Point",
        "coordinates": [
          34.556666666666665,
          69.31833333333333
        ]
      },
      "properties": {
        "dtg": "2026-07-31T04:16:06.206997+00:00",
        "raw_dtg": "ПРИП МУРМАНСК 270/26 ПРИП МУРМАНСК 270 КАРТА 12000\r\n\r\nВОСТОЧНЕЕ ОСТРОВА КИЛЬДИН",
        "msg_id": "PRIP MURMANSK 270/26",
        "year": 2026,
        "cancellations": [],
        "hazard_type": "general",
        "category": "other",
        "title": "General Warning",
        "geometry_kind": "point",
        "radius_nm": null,
        "body": "1. ЗАПРЕТНЫЙ ПЛАВАНИЯ ВСЕХ СУДОВ 01 ПО 31 АВГ\nКРУГЛОСУТОЧНО РАЙОН РАДИУСОМ 1000 МЕТРОВ\nИЗ 69-19.1С 034-33.4В\n2. ОТМ ЭТОТ НР 01 СЕНТ=\n301000 МСК  ГС-",
        "cancel_date": null,
        "valid_from": "2026-07-31T04:16:06.206997+00:00",
        "valid_until": "2026-09-01T00:00:00+00:00",
        "corrections": [],
        "summary": null
      }
    },
    {
      "type": "Feature",
      "id": "PRIP MURMANSK 271/26",
      "geometry": {
        "type": "Polygon",
        "coordinates": [
          [
            [
              34.78333333333333,
              69.46666666666667
            ],
            [
              35.175,
              69.46666666666667
            ],
            [
              35.175,
              69.35833333333333
            ],
            [
              34.78333333333333,
              69.35833333333333
            ],
            [
              34.78333333333333,
              69.46666666666667
            ]
          ]
        ]
      },
      "properties": {
        "dtg": "2026-07-31T04:16:06.206528+00:00",
        "raw_dtg": "ПРИП МУРМАНСК 271/26 ПРИП МУРМАНСК 271 КАРТА 12000\r\n\r\nБАРЕНЦЕВО МОРЕ",
        "msg_id": "PRIP MURMANSK 271/26",
        "year": 2026,
        "cancellations": [],
        "hazard_type": "general",
        "category": "other",
        "title": "General Warning",
        "geometry_kind": "polygon",
        "radius_nm": null,
        "body": "1. УЧЕБНЫЕ УПРАЖНЕНИЯ ВМФ 01 ПО 31 АВГ\nКРУГЛОСУТОЧНО РАЙОНЕ ЗАПРЕТНОМ ДЛЯ ПЛАВАНИЯ\n69-28.0С 034-47.0В\n69-28.0С 035-10.5В\n69-21.5С 035-10.5В\n69-21.5С 034-47.0В\n2. ОТМ ЭТОТ НР 01 СЕНТ=\n301000 МСК  ГС-",
        "cancel_date": null,
        "valid_from": "2026-07-31T04:16:06.206528+00:00",
        "valid_until": "2026-09-01T00:00:00+00:00",
        "corrections": [],
        "summary": null
      }
    },
    {
      "type": "Feature",
      "id": "PRIP MURMANSK 272/26",
      "geometry": {
        "type": "LineString",
        "coordinates": [
          [
            31.1,
            69.975
          ],
          [
            31.2,
            69.975
          ],
          [
            30.91,
            69.78666666666666
          ],
          [
            30.828333333333333,
            69.79
          ],
          [
            30.826666666666668,
            69.79833333333333
          ]
        ]
      },
      "properties": {
        "dtg": "2026-07-31T04:16:06.205752+00:00",
        "raw_dtg": "ПРИП МУРМАНСК 272/26 ПРИП МУРМАНСК 272 КАРТА 12000\r\n\r\nЗАЛИВ ВАРАНГЕР-ФЬОРД",
        "msg_id": "PRIP MURMANSK 272/26",
        "year": 2026,
        "cancellations": [],
        "hazard_type": "general",
        "category": "other",
        "title": "General Warning",
        "geometry_kind": "linestring",
        "radius_nm": null,
        "body": "1. ЗАПРЕТНЫЙ ПЛАВАНИЯ ВСЕХ СУДОВ 01 ПО 31 АВГ\nКРУГЛОСУТОЧНО РАЙОН\n69-58.5С 031-06.0В\n69-58.5С 031-12.0В\n69-47.2С 030-54.6В\nДАЛЕЕ ПО БЕРЕГОВОЙ ЛИНИИ ДО\n69-47.4С 030-49.7В\n69-47.9С 030-49.6В\n2. ОТМ ЭТОТ НР 01 СЕНТ=\n301000 МСК  ГС-",
        "cancel_date": null,
        "valid_from": "2026-07-31T04:16:06.205752+00:00",
        "valid_until": "2026-09-01T00:00:00+00:00",
        "corrections": [],
        "summary": null
      }
    },
    {
      "type": "Feature",
      "id": "PRIP MURMANSK 273/26",
      "geometry": {
        "type": "Polygon",
        "coordinates": [
          [
            [
              33.135,
              69.715
            ],
            [
              33.5,
              69.71666666666667
            ],
            [
              33.5,
              69.53333333333333
            ],
            [
              33.21666666666667,
              69.42166666666667
            ],
            [
              32.833333333333336,
              69.5
            ],
            [
              32.833333333333336,
              69.56666666666666
            ],
            [
              33.135,
              69.715
            ]
          ]
        ]
      },
      "properties": {
        "dtg": "2026-08-01T04:15:16.013125+00:00",
        "raw_dtg": "ПРИП МУРМАНСК 273/26 КАРТА 12000\r\nЮГО-ВОСТОЧНЕЕ ПОЛУОСТРОВА РЫБАЧИЙ",
        "msg_id": "PRIP MURMANSK 273/26",
        "year": 2026,
        "cancellations": [],
        "hazard_type": "general",
        "category": "other",
        "title": "General Warning",
        "geometry_kind": "polygon",
        "radius_nm": null,
        "body": "1. СПЕЦИАЛЬНЫЕ РАБОТЫ 06 ПО 08 АВГ\n1000 ДО 1300 РАЙОНЕ ЗАПРЕТНОМ ДЛЯ ПЛАВАНИЯ\n69-42.9С 033-08.1В\n69-43.0С 033-30.0В\n69-32.0С 033-30.0В\n69-25.3С 033-13.0В\n69-30.0С 032-50.0В\n69-34.0С 032-50.0В\nДАЛЕЕ ПО БЕРЕГОВОЙ ЛИНИИ ДО\n69-42.9С 033-08.1В\n2. ОТМ ЭТОТ НР 081400 АВГ=\n311000 МСК  ГС-",
        "cancel_date": null,
        "valid_from": "2026-08-01T04:15:16.013125+00:00",
        "valid_until": "2026-08-08T14:00:00+00:00",
        "corrections": [],
        "summary": null
      }
    },
    {
      "type": "Feature",
      "id": "PRIP MURMANSK 274/26",
      "geometry": {
        "type": "Polygon",
        "coordinates": [
          [
            [
              33.333333333333336,
              69.575
            ],
            [
              33.5,
              69.575
            ],
            [
              33.5,
              69.55
            ],
            [
              33.333333333333336,
              69.55
            ],
            [
              33.333333333333336,
              69.575
            ]
          ]
        ]
      },
      "properties": {
        "dtg": "2026-08-01T04:15:16.012155+00:00",
        "raw_dtg": "ПРИП МУРМАНСК 274/26 КАРТА 13004\r\nБАРЕНЦЕВО МОРЕ",
        "msg_id": "PRIP MURMANSK 274/26",
        "year": 2026,
        "cancellations": [],
        "hazard_type": "general",
        "category": "other",
        "title": "General Warning",
        "geometry_kind": "polygon",
        "radius_nm": null,
        "body": "1. СПЕЦИАЛЬНЫЕ РАБОТЫ 031800 АВГ ПО 031800 СЕНТ\nРАЙОНЕ ЗАПРЕТНОМ ДЛЯ ПЛАВАНИЯ\n69-34.5С 033-20.0В\n69-34.5С 033-30.0В\n69-33.0С 033-30.0В\n69-33.0С 033-20.0В\n2. ОТМ ЭТОТ НР 031800 СЕНТ=\n311000 МСК  ГС-",
        "cancel_date": null,
        "valid_from": "2026-08-01T04:15:16.012155+00:00",
        "valid_until": "2026-09-03T18:00:00+00:00",
        "corrections": [],
        "summary": null
      }
    },
    {
      "type": "Feature",
      "id": "PRIP MURMANSK 330/25",
      "geometry": {
        "type": "Polygon",
        "coordinates": [
          [
            [
              33.01125,
              68.95825
            ],
            [
              33.021388888888886,
              68.95727777777778
            ],
            [
              33.01986111111111,
              68.95527777777778
            ],
            [
              33.009861111111114,
              68.95647222222223
            ],
            [
              33.01125,
              68.95825
            ]
          ]
        ]
      },
      "properties": {
        "dtg": "2026-03-14T01:31:34.733614+00:00",
        "raw_dtg": "ПРИП МУРМАНСК 330/25 ПРИП МУРМАНСК 330 КАРТА 17007\r\n\r\nКОЛЬСКИЙ ЗАЛИВ ПОРТ МУРМАНСК",
        "msg_id": "PRIP MURMANSK 330/25",
        "year": 2025,
        "cancellations": [],
        "hazard_type": "general",
        "category": "other",
        "title": "General Warning",
        "geometry_kind": "polygon",
        "radius_nm": null,
        "body": "1. ГИДРОТЕХНИЧЕСКИЕ И ДНОУГЛУБИТЕЛЬНЫЕ РАБОТЫ\n22 ОКТ 2025 ПО 01 ОКТ 2026 РАЙОНЕ\n68-57-29.7С 033-00-40.5В\n68-57-26.2С 033-01-17.0В\n68-57-19.0С 033-01-11.5В\n68-57-23.3С 033-00-35.5В\nДАЛЕЕ ПО БЕРЕГОВОЙ ЛИНИИ ДО\n68-57-29.7С 033-00-40.5В\nПРИ ПЛАВАНИИ СОБЛЮДАТЬ ОСТОРОЖНОСТЬ\n2. ОТМ ЭТОТ НР 02 ОКТ 2026=\n201000 МСК  ГС-",
        "cancel_date": null,
        "valid_from": "2026-03-14T01:31:34.733614+00:00",
        "valid_until": "2026-10-02T00:00:00+00:00",
        "corrections": [],
        "summary": null
      }
    },
    {
      "type": "Feature",
      "id": "PRIP WEST 54/26#grp1",
      "geometry": {
        "type": "Polygon",
        "coordinates": [
          [
            [
              71.65383333333334,
              66.7215
            ],
            [
              72.424,
              66.54833333333333
            ],
            [
              73.85216666666666,
              66.99033333333334
            ],
            [
              72.0355,
              67.08366666666667
            ],
            [
              71.65383333333334,
              66.7215
            ]
          ]
        ]
      },
      "properties": {
        "parent_id": "PRIP WEST 54/26",
        "group_index": 1,
        "dtg": "2026-06-27T01:36:46.512177+00:00",
        "raw_dtg": "ПРИП ЗАПАД 54/26 КАРТА 12317 КАРСКОЕ МОРЕ ОБСКАЯ ГУБА",
        "year": 2026,
        "hazard_type": "general",
        "category": "other",
        "title": "General Warning",
        "body": "1. СЕЙСМОРАЗВЕДОЧНЫЕ РАБОТЫ\n21 ИЮНЬ ДО 31 ОКТ В РАЙОНЕ\n66-43.29С 071-39.23В\n66-32.90С 072-25.44В\nДАЛЕЕ ПО БЕРЕГОВОЙ ЛИНИИ ДО\n66-59.42С 073-51.13В\n67-05.02С 072-02.13В\nДАЛЕЕ ПО БЕРЕГОВОЙ ЛИНИИ 66-43.29С 071-39.23В \nСОБЛЮДАТЬ ОСТОРОЖНОСТЬ СИСТЕМА КООРДИНАТ WGS-84\n2.ОТМ ЭТОТ НР 01 НОЯБ 26= \nCOASTAL WARNING WEST 54/26 KARA SEA.\nOBSKAYA GUBA. CHART RUS 12317.\n1.SEISMIC SURVEY FROM 21 JUN TO 31 OCT IN AREA BOUNDED BY:\n66-43.29N 071-39.23E,\n66-32.90N 072-25.44E, THEN COASTAL LINE TO, 66-59.42N 073-51.13E,\n67-05.02N 072-02.13E, THEN COASTAL LINE TO, 66-43.29N 071-39.23E. PROCEED WITH CAUTION. WGS 84 DATUM.\n2.CANCEL THIS MSG 01 NOV 26.= \nNNNN",
        "cancel_date": null,
        "valid_from": "2026-06-27T01:36:46.512177+00:00",
        "valid_until": "2026-11-01T00:00:00+00:00",
        "corrections": [],
        "summary": null
      }
    },
    {
      "type": "Feature",
      "id": "PRIP WEST 54/26#grp2",
      "geometry": {
        "type": "Polygon",
        "coordinates": [
          [
            [
              71.65383333333334,
              66.7215
            ],
            [
              72.424,
              66.54833333333333
            ],
            [
              73.85216666666666,
              66.99033333333334
            ],
            [
              72.0355,
              67.08366666666667
            ],
            [
              71.65383333333334,
              66.7215
            ]
          ]
        ]
      },
      "properties": {
        "parent_id": "PRIP WEST 54/26",
        "group_index": 2,
        "dtg": "2026-06-27T01:36:46.512177+00:00",
        "raw_dtg": "ПРИП ЗАПАД 54/26 КАРТА 12317 КАРСКОЕ МОРЕ ОБСКАЯ ГУБА",
        "year": 2026,
        "hazard_type": "general",
        "category": "other",
        "title": "General Warning",
        "body": "1. СЕЙСМОРАЗВЕДОЧНЫЕ РАБОТЫ\n21 ИЮНЬ ДО 31 ОКТ В РАЙОНЕ\n66-43.29С 071-39.23В\n66-32.90С 072-25.44В\nДАЛЕЕ ПО БЕРЕГОВОЙ ЛИНИИ ДО\n66-59.42С 073-51.13В\n67-05.02С 072-02.13В\nДАЛЕЕ ПО БЕРЕГОВОЙ ЛИНИИ 66-43.29С 071-39.23В \nСОБЛЮДАТЬ ОСТОРОЖНОСТЬ СИСТЕМА КООРДИНАТ WGS-84\n2.ОТМ ЭТОТ НР 01 НОЯБ 26= \nCOASTAL WARNING WEST 54/26 KARA SEA.\nOBSKAYA GUBA. CHART RUS 12317.\n1.SEISMIC SURVEY FROM 21 JUN TO 31 OCT IN AREA BOUNDED BY:\n66-43.29N 071-39.23E,\n66-32.90N 072-25.44E, THEN COASTAL LINE TO, 66-59.42N 073-51.13E,\n67-05.02N 072-02.13E, THEN COASTAL LINE TO, 66-43.29N 071-39.23E. PROCEED WITH CAUTION. WGS 84 DATUM.\n2.CANCEL THIS MSG 01 NOV 26.= \nNNNN",
        "cancel_date": null,
        "valid_from": "2026-06-27T01:36:46.512177+00:00",
        "valid_until": "2026-11-01T00:00:00+00:00",
        "corrections": [],
        "summary": null
      }
    },
    {
      "type": "Feature",
      "id": "PRIP WEST 76/26#grp1",
      "geometry": {
        "type": "Polygon",
        "coordinates": [
          [
            [
              71.777,
              66.9
            ],
            [
              72.39333333333333,
              67.268
            ],
            [
              72.5625,
              67.37666666666667
            ],
            [
              72.79416666666667,
              67.513
            ],
            [
              74.0565,
              67.47583333333333
            ],
            [
              73.5065,
              66.86816666666667
            ],
            [
              72.14816666666667,
              66.34766666666667
            ],
            [
              71.777,
              66.9
            ]
          ]
        ]
      },
      "properties": {
        "parent_id": "PRIP WEST 76/26",
        "group_index": 1,
        "dtg": "2026-07-31T04:16:06.208690+00:00",
        "raw_dtg": "ПРИП ЗАПАД 76/26 КАРТЫ 12317 13338 КАРСКОЕ МОРЕ ОБСКАЯ ГУБА\r\nKARA SEA. OBSKAYA GUBA. CHARTS RUS 12317, 13338.",
        "year": 2026,
        "hazard_type": "ice and icebergs",
        "category": "navigation",
        "title": "Ice and Icebergs",
        "body": "1. СЕЙСМИЧЕСКИЕ ИССЛЕДОВАНИЯ С ИСПОЛЬЗОВАНИЕМ ДОННОГО ПРИЕМНОГО ОБОРУДОВАНИЯ 28 ИЮЛЯ ПО\n30 СЕНТ В РАЙОНЕ 66-54.00С 071-46.62В 67-16.08С 072-23.60В\n67-22.60С 072-33.75В 67-30.78С 072-47.65В 67-28.55С 074-03.39В\n66-52.09С 073-30.39В 66-20.86С 072-08.89В ПОСТАНОВКА НА ЯКОРЬ ЗАПРЕЩЕНА 2. ОТМ 68/26\n3. ОТМ ЭТОТ НР 01 ОКТ 26= \n1.\tSEISMIC SURVEY BY USING BOTTOM RECEIVING EQUIPMENT 28 JUL TO 30 SEP IN AREA:\n66-54.00N 071-46.62E, 67-16.08N 072-23.60E,\n67-22.60N 072-33.75E, 67-30.78N 072-47.65E,\n67-28.55N 074-03.39E, 66-52.09N 073-30.39E,\n66-20.86N 072-08.89E. ANCHORAGE PROHIBITED.\n2.\tCANCEL 68/26.\n3.\tCANCEL THIS MSG 01 OCT 26.= NNNN",
        "cancel_date": null,
        "valid_from": "2026-07-31T04:16:06.208690+00:00",
        "valid_until": "2026-10-01T00:00:00+00:00",
        "corrections": [],
        "summary": null
      }
    },
    {
      "type": "Feature",
      "id": "PRIP WEST 76/26#grp2",
      "geometry": {
        "type": "Polygon",
        "coordinates": [
          [
            [
              71.777,
              66.9
            ],
            [
              72.39333333333333,
              67.268
            ],
            [
              72.5625,
              67.37666666666667
            ],
            [
              72.79416666666667,
              67.513
            ],
            [
              74.0565,
              67.47583333333333
            ],
            [
              73.5065,
              66.86816666666667
            ],
            [
              72.14816666666667,
              66.34766666666667
            ],
            [
              71.777,
              66.9
            ]
          ]
        ]
      },
      "properties": {
        "parent_id": "PRIP WEST 76/26",
        "group_index": 2,
        "dtg": "2026-07-31T04:16:06.208690+00:00",
        "raw_dtg": "ПРИП ЗАПАД 76/26 КАРТЫ 12317 13338 КАРСКОЕ МОРЕ ОБСКАЯ ГУБА\r\nKARA SEA. OBSKAYA GUBA. CHARTS RUS 12317, 13338.",
        "year": 2026,
        "hazard_type": "ice and icebergs",
        "category": "navigation",
        "title": "Ice and Icebergs",
        "body": "1. СЕЙСМИЧЕСКИЕ ИССЛЕДОВАНИЯ С ИСПОЛЬЗОВАНИЕМ ДОННОГО ПРИЕМНОГО ОБОРУДОВАНИЯ 28 ИЮЛЯ ПО\n30 СЕНТ В РАЙОНЕ 66-54.00С 071-46.62В 67-16.08С 072-23.60В\n67-22.60С 072-33.75В 67-30.78С 072-47.65В 67-28.55С 074-03.39В\n66-52.09С 073-30.39В 66-20.86С 072-08.89В ПОСТАНОВКА НА ЯКОРЬ ЗАПРЕЩЕНА 2. ОТМ 68/26\n3. ОТМ ЭТОТ НР 01 ОКТ 26= \n1.\tSEISMIC SURVEY BY USING BOTTOM RECEIVING EQUIPMENT 28 JUL TO 30 SEP IN AREA:\n66-54.00N 071-46.62E, 67-16.08N 072-23.60E,\n67-22.60N 072-33.75E, 67-30.78N 072-47.65E,\n67-28.55N 074-03.39E, 66-52.09N 073-30.39E,\n66-20.86N 072-08.89E. ANCHORAGE PROHIBITED.\n2.\tCANCEL 68/26.\n3.\tCANCEL THIS MSG 01 OCT 26.= NNNN",
        "cancel_date": null,
        "valid_from": "2026-07-31T04:16:06.208690+00:00",
        "valid_until": "2026-10-01T00:00:00+00:00",
        "corrections": [],
        "summary": null
      }
    }
  ]
}
